{
    "links": {
        "self": "http://www.neowsapp.com/rest/v1/neo/54006014?api_key=iIulBulltgU6a56xZRHN4H3l9WmuAYTsLGpBGhQ2"
    },
    "id": "54006014",
    "neo_reference_id": "54006014",
    "name": "(2020 DH4)",
    "designation": "2020 DH4",
    "nasa_jpl_url": "http://ssd.jpl.nasa.gov/sbdb.cgi?sstr=54006014",
    "absolute_magnitude_h": 24.381,
    "estimated_diameter": {
        "kilometers": {
            "estimated_diameter_min": 0.0353471967,
            "estimated_diameter_max": 0.0790387346
        },
        "meters": {
            "estimated_diameter_min": 35.3471966955,
            "estimated_diameter_max": 79.0387346252
        },
        "miles": {
            "estimated_diameter_min": 0.021963723,
            "estimated_diameter_max": 0.0491123776
        },
        "feet": {
            "estimated_diameter_min": 115.9684968065,
            "estimated_diameter_max": 259.3134421077
        }
    },
    "is_potentially_hazardous_asteroid": false,
    "close_approach_data": [
        {
            "close_approach_date": "2020-03-13",
            "close_approach_date_full": "2020-Mar-13 02:51",
            "epoch_date_close_approach": 1584067860000,
            "relative_velocity": {
                "kilometers_per_second": "14.2688826064",
                "kilometers_per_hour": "51367.9773830508",
                "miles_per_hour": "31918.0635022629"
            },
            "miss_distance": {
                "astronomical": "0.0556167218",
                "lunar": "21.6349047802",
                "kilometers": "8320143.117662566",
                "miles": "5169897.2019967708"
            },
            "orbiting_body": "Earth"
        }
    ],
    "orbital_data": {
        "orbit_id": "4",
        "orbit_determination_date": "2020-03-12 06:07:21",
        "first_observation_date": "2020-02-27",
        "last_observation_date": "2020-03-04",
        "data_arc_in_days": 6,
        "observations_used": 35,
        "orbit_uncertainty": "8",
        "minimum_orbit_intersection": ".0455736",
        "jupiter_tisserand_invariant": "4.247",
        "epoch_osculation": "2458908.5",
        "eccentricity": ".46933276284565",
        "semi_major_axis": "1.580373322376898",
        "inclination": "11.27540270294387",
        "ascending_node_longitude": "163.1066237577956",
        "orbital_period": "725.667982407467",
        "perihelion_distance": ".8386523446581894",
        "perihelion_argument": "74.81825029253061",
        "aphelion_distance": "2.322094300095607",
        "perihelion_time": "2458968.150978798474",
        "mean_anomaly": "330.4074688589573",
        "mean_motion": ".4960946448342237",
        "equinox": "J2000",
        "orbit_class": {
            "orbit_class_type": "APO",
            "orbit_class_description": "Near-Earth asteroid orbits which cross the Earth’s orbit similar to that of 1862 Apollo",
            "orbit_class_range": "a (semi-major axis) > 1.0 AU; q (perihelion) < 1.017 AU"
        }
    },
    "is_sentry_object": false
}